SL-8 R/B                
1 15483U 85006B   25339.30564644  .00000527  00000+0  18357-3 0  9994
2 15483  74.0465  74.8118 0018366   8.8782  50.4070 14.37714507140465
SL-12 R/B(2)            
1 15772U 85042D   25339.30695500  .00000198  00000+0  11042-3 0  9999
2 15772  71.1082 287.1222 0037675 272.3849 240.0789 14.21948181100976
SL-14 R/B               
1 15945U 85069B   25338.82478328  .00001137  00000+0  12605-3 0  9993
2 15945  82.5260 114.1435 0019681 143.2392 217.0179 14.86309670158743
SL-16 R/B               
1 16182U 85097B   25339.28485547 -.00000085  00000+0 -18683-4 0  9996
2 16182  71.0031 339.2987 0006206  22.6410 349.4594 14.16581711 73869
SL-14 R/B               
1 16496U 86006B   25339.29617681  .00001234  00000+0  12928-3 0  9992
2 16496  82.5266 348.5558 0075601 224.7969 134.7130 14.86656519135181
COSMOS 1743             
1 16719U 86034A   25338.98109932  .00043819  00000+0  73658-3 0  9993
2 16719  82.5341 172.6467 0004797 287.4064  72.6663 15.51555329165531
SL-14 R/B               
1 16792U 86046B   25339.23756517  .00000903  00000+0  10141-3 0  9998
2 16792  82.4812 169.3993 0023162 176.6422 183.4954 14.85472370112384
SL-14 R/B               
1 16882U 86055B   25339.17905491  .00000915  00000+0  10295-3 0  9991
2 16882  82.5212 215.4767 0017548 286.6106 190.0436 14.85519644105335
AJISAI (EGS)            
1 16908U 86061A   25339.28130729 -.00000092  00000+0  36728-4 0  9990
2 16908  50.0114  23.6512 0011266  47.1893  52.7197 12.44514136456247
COSMOS 1812             
1 17295U 87003A   25339.29481584  .00124673  00000+0  87708-3 0  9990
2 17295  82.4870 300.0647 0007202  96.4255 263.7830 15.73703181129486
SL-14 R/B               
1 17567U 87024B   25339.03587048  .00000905  00000+0  10055-3 0  9991
2 17567  82.5280 181.6914 0017441 210.4840 149.5365 14.86012335 74073
COSMOS 1833             
1 17589U 87027A   25338.93075250  .00000074  00000+0  65458-4 0  9998
2 17589  70.9131 165.1934 0022200 342.6956  17.3405 14.13018956996926
SL-16 R/B               
1 17590U 87027B   25339.32042826 -.00000066  00000+0 -88514-5 0  9999
2 17590  71.0023 115.3513 0007528 267.5279  92.4983 14.17152525  1971
SL-14 R/B               
1 17912U 87038B   25339.18434082  .00000850  00000+0  95914-4 0  9992
2 17912  82.5023  25.8171 0020685 115.2878 245.0485 14.85250831 65207
COSMOS 1844             
1 17973U 87041A   25339.13680933 -.00000118  00000+0 -35907-4 0  9991
2 17973  70.8986 233.6067 0030318 169.2961 190.8813 14.14527380990219
SL-14 R/B               
1 18153U 87055B   25339.31226464  .00000964  00000+0  10856-3 0  9994
2 18153  82.5000  77.9878 0019890 329.1778  30.8268 14.85509141 55921
COSMOS 1867             
1 18187U 87060A   25338.98786171  .00000053  00000+0  57682-4 0  9993
2 18187  65.0098 211.9110 0013629 270.3400  89.6122 14.31484268  6383
SL-14 R/B               
1 18749U 88001B   25339.30133933  .00000962  00000+0  10866-3 0  9993
2 18749  82.5127 284.1438 0017800 185.5713 174.5308 14.85411482 28019
COSMOS 1933             
1 18958U 88020A   25339.10165741  .00008830  00000+0  44514-3 0  9995
2 18958  82.5125 344.4258 0005271 147.6980 212.4577 15.17012254 35886
SL-3 R/B                
1 19046U 88032B   25339.21844688  .00009201  00000+0  44378-3 0  9994
2 19046  97.5069 317.9917 0025920 199.4277 160.5972 15.18624718 37768
SL-16 R/B               
1 19120U 88039B   25339.20736414  .00000227  00000+0  13000-3 0  9997
2 19120  71.0150 268.3243 0019937 129.0327 231.2577 14.19594406944973
COSMOS 1953             
1 19210U 88050A   25339.16780142  .00012337  00000+0  46574-3 0  9999
2 19210  82.5103 253.1773 0013812  94.4914 265.7902 15.26804604 23358
SL-8 R/B                
1 19257U 88053B   25339.31935219  .00000493  00000+0  16836-3 0  9995
2 19257  74.0476 286.3955 0019159 133.2510 339.8629 14.38851898963027
COSMOS 1975             
1 19573U 88093A   25339.11081749  .00014811  00000+0  56800-3 0  9992
2 19573  82.5211 212.4647 0012329 136.6238 223.5973 15.26307367  4979
SL-14 R/B               
1 19574U 88093B   25339.03641441  .00000982  00000+0  11058-3 0  9995
2 19574  82.5298 130.8962 0020588 355.5311 104.9637 14.85536269986986
SL-16 R/B               
1 19650U 88102B   25339.32422911 -.00000146  00000+0 -49585-4 0  9993
2 19650  71.0002 350.0468 0013301 164.3923 195.7613 14.16137146913532
INTERCOSMOS 24          
1 20261U 89080A   25339.27601485  .00001464  00000+0  42561-3 0  9996
2 20261  82.6046 165.8057 1188756 151.8291 215.2715 12.59418313654919
SL-14 R/B               
1 20262U 89080C   25339.14372135  .00000787  00000+0  23071-3 0  9992
2 20262  82.5937 233.8959 1230777  40.9445 327.7757 12.50404389648338
DELTA 1 R/B             
1 20323U 89089B   25339.18992406  .00000686  00000+0  17821-3 0  9996
2 20323  97.0757 196.6237 0070486  61.7360 299.0929 14.50562867882034
ARIANE 40 R/B           
1 20443U 90005H   25339.16430038  .00000689  00000+0  23320-3 0  9999
2 20443  98.3255  37.5560 0011064 126.4648 233.7561 14.39790007879209
