OBJECT_NAME,OBJECT_ID,EPOCH,MEAN_MOTION,ECCENTRICITY,INCLINATION,RA_OF_ASC_NODE,ARG_OF_PERICENTER,MEAN_ANOMALY,EPHEMERIS_TYPE,CLASSIFICATION_TYPE,NORAD_CAT_ID,ELEMENT_SET_NO,REV_AT_EPOCH,BSTAR,MEAN_MOTION_DOT,MEAN_MOTION_DDOT
SL-8 R/B,1985-006B,2025-12-05T07:20:07.852416,14.37714507,.00183669,74.0465,74.8118,8.8782,50.4070,0,U,15483,999,14046,.18357E-3,.527E-5,0
SL-12 R/B(2),1985-042D,2025-12-05T07:22:00.912000,14.21948181,.00376752,71.1082,287.1222,272.3849,240.0789,0,U,15772,999,10097,.1104214E-3,.198E-5,0
SL-14 R/B,1985-069B,2025-12-04T19:47:41.275392,14.86309670,.0019681,82.5260,114.1435,143.2392,217.0179,0,U,15945,999,15874,.12604948E-3,.1137E-4,0
SL-16 R/B,1985-097B,2025-12-05T06:50:11.512608,14.16581711,.00062066,71.0031,339.2987,22.6410,349.4594,0,U,16182,999,7386,-.18682711E-4,-.85E-6,0
SL-14 R/B,1986-006B,2025-12-05T07:06:29.676384,14.86656519,.00756017,82.5266,348.5558,224.7969,134.7130,0,U,16496,999,13518,.12928262E-3,.1234E-4,0
COSMOS 1743,1986-034A,2025-12-04T23:32:46.981248,15.51555329,.00047971,82.5341,172.6467,287.4064,72.6663,0,U,16719,999,16553,.7365789E-3,.43819E-3,0
SL-14 R/B,1986-046B,2025-12-05T05:42:05.630688,14.85472370,.00231623,82.4812,169.3993,176.6422,183.4954,0,U,16792,999,11238,.10141274E-3,.903E-5,0
SL-14 R/B,1986-055B,2025-12-05T04:17:50.344224,14.85519644,.00175489,82.5212,215.4767,286.6106,190.0436,0,U,16882,999,10533,.10294733E-3,.915E-5,0
AJISAI (EGS),1986-061A,2025-12-05T06:45:04.949856,12.44514136,.00112662,50.0114,23.6512,47.1893,52.7197,0,U,16908,999,45624,.36727637E-4,-.92E-6,0
COSMOS 1812,1987-003A,2025-12-05T07:04:32.088576,15.73703181,.00072021,82.4870,300.0647,96.4255,263.7830,0,U,17295,999,12948,.87708383E-3,.124673E-2,0
SL-14 R/B,1987-024B,2025-12-05T00:51:39.209472,14.86012335,.00174419,82.5280,181.6914,210.4840,149.5365,0,U,17567,999,7407,.10054926E-3,.905E-5,0
COSMOS 1833,1987-027A,2025-12-04T22:20:17.016000,14.13018956,.00222,70.9131,165.1934,342.6956,17.3405,0,U,17589,999,99692,.65458E-4,.74E-6,0
SL-16 R/B,1987-027B,2025-12-05T07:41:25.001664,14.17152525,.00075287,71.0023,115.3513,267.5279,92.4983,0,U,17590,999,197,-.8851405E-5,-.66E-6,0
SL-14 R/B,1987-038B,2025-12-05T04:25:27.046848,14.85250831,.00206852,82.5023,25.8171,115.2878,245.0485,0,U,17912,999,6520,.95913995E-4,.85E-5,0
COSMOS 1844,1987-041A,2025-12-05T03:17:00.326112,14.14527380,.00303181,70.8986,233.6067,169.2961,190.8813,0,U,17973,999,99021,-.35907362E-4,-.118E-5,0
SL-14 R/B,1987-055B,2025-12-05T07:29:39.664896,14.85509141,.001989,82.5000,77.9878,329.1778,30.8268,0,U,18153,999,5592,.10855506E-3,.964E-5,0
COSMOS 1867,1987-060A,2025-12-04T23:42:31.251744,14.31484268,.00136295,65.0098,211.9110,270.3400,89.6122,0,U,18187,999,638,.57682014E-4,.53E-6,0
SL-14 R/B,1988-001B,2025-12-05T07:13:55.718112,14.85411482,.00178006,82.5127,284.1438,185.5713,174.5308,0,U,18749,999,2801,.10865661E-3,.962E-5,0
COSMOS 1933,1988-020A,2025-12-05T02:26:23.200224,15.17012254,.00052714,82.5125,344.4258,147.6980,212.4577,0,U,18958,999,3588,.44514099E-3,.883E-4,0
SL-3 R/B,1988-032B,2025-12-05T05:14:33.810432,15.18624718,.00259207,97.5069,317.9917,199.4277,160.5972,0,U,19046,999,3776,.44378314E-3,.9201E-4,0
SL-16 R/B,1988-039B,2025-12-05T04:58:36.261696,14.19594406,.00199375,71.0150,268.3243,129.0327,231.2577,0,U,19120,999,94497,.13000207E-3,.227E-5,0
COSMOS 1953,1988-050A,2025-12-05T04:01:38.042688,15.26804604,.00138121,82.5103,253.1773,94.4914,265.7902,0,U,19210,999,2335,.46574354E-3,.12337E-3,0
SL-8 R/B,1988-053B,2025-12-05T07:39:52.029216,14.38851898,.00191596,74.0476,286.3955,133.2510,339.8629,0,U,19257,999,96302,.16836128E-3,.493E-5,0
COSMOS 1975,1988-093A,2025-12-05T02:39:34.631136,15.26307367,.00123291,82.5211,212.4647,136.6238,223.5973,0,U,19573,999,497,.56799758E-3,.14811E-3,0
SL-14 R/B,1988-093B,2025-12-05T00:52:26.205024,14.85536269,.00205882,82.5298,130.8962,355.5311,104.9637,0,U,19574,999,98698,.11058452E-3,.982E-5,0
SL-16 R/B,1988-102B,2025-12-05T07:46:53.395104,14.16137146,.00133019,71.0002,350.0468,164.3923,195.7613,0,U,19650,999,91353,-.49584553E-4,-.146E-5,0
INTERCOSMOS 24,1989-080A,2025-12-05T06:37:27.683040,12.59418313,.11887569,82.6046,165.8057,151.8291,215.2715,0,U,20261,999,65491,.42560785E-3,.1464E-4,0
SL-14 R/B,1989-080C,2025-12-05T03:26:57.524640,12.50404389,.12307778,82.5937,233.8959,40.9445,327.7757,0,U,20262,999,64833,.23070631E-3,.787E-5,0
DELTA 1 R/B,1989-089B,2025-12-05T04:33:29.438784,14.50562867,.00704861,97.0757,196.6237,61.7360,299.0929,0,U,20323,999,88203,.17821441E-3,.686E-5,0
ARIANE 40 R/B,1990-005H,2025-12-05T03:56:35.552832,14.39790007,.00110646,98.3255,37.5560,126.4648,233.7561,0,U,20443,999,87920,.23320196E-3,.689E-5,0
